NORAD_CAT_ID,OBJECT_NAME,OBJECT_TYPE,EPOCH,MEAN_MOTION,ECCENTRICITY,INCLINATION,RA_OF_ASC_NODE,ARG_OF_PERICENTER,MEAN_ANOMALY,BSTAR,MEAN_MOTION_DOT,MEAN_MOTION_DDOT,TLE_LINE0,TLE_LINE1,TLE_LINE2,SEMIMAJOR_AXIS,PERIOD,APOGEE,PERIGEE,DECAYED
53624.0,STARLINK-4596,PAYLOAD,2022-11-09 06:00:00,15.08827203,0.0001788,53.2154,294.6855,52.5464,81.439,0.00099325,0.00015549,0.0,0 STARLINK-4596,1 53624U 22104AN  22313.25001157  .00015549  00000-0  99325-3 0  9996,2 53624  53.2154 294.6855 0001788  52.5464  81.4390 15.08827203 11420,6917.92,95.438,541.021,538.548,0.0
53624.0,STARLINK-4596,PAYLOAD,2022-11-09 14:00:01,15.088672699999998,0.0001732,53.2156,293.1885,51.5388,94.0257,-0.0036028,-0.00057215,0.0,0 STARLINK-4596,1 53624U 22104AN  22313.58334491 -.00057215  00000-0 -36028-2 0  9990,2 53624  53.2156 293.1885 0001732  51.5388  94.0257 15.08867270  1308,6917.797,95.436,540.86,538.464,0.0
53624.0,STARLINK-4596,PAYLOAD,2022-11-09 22:00:01,15.08834007,0.0001669,53.216,291.6909,58.394,98.8311,-0.00066203,-0.00010807,0.0,0 STARLINK-4596,1 53624U 22104AN  22313.91668981 -.00010807  00000-0 -66203-3 0  9996,2 53624  53.2160 291.6909 0001669  58.3940  98.8311 15.08834007  1306,6917.899,95.438,540.918,538.609,0.0
53624.0,STARLINK-4596,PAYLOAD,2022-11-10 06:00:00,15.0882307,0.0001838,53.2161,290.1963,53.218,115.5278,-0.0019226,-0.00030742,0.0,0 STARLINK-4596,1 53624U 22104AN  22314.25001157 -.00030742  00000-0 -19226-2 0  9992,2 53624  53.2161 290.1963 0001838  53.2180 115.5278 15.08823070 11576,6917.932,95.439,541.069,538.526,0.0
53624.0,STARLINK-4596,PAYLOAD,2022-11-10 14:00:01,15.08817055,0.0001721999999999,53.2161,288.6992,52.3821,127.9236,-0.001053,-0.00016997,0.0,0 STARLINK-4596,1 53624U 22104AN  22314.58334491 -.00016997  00000-0 -10530-2 0  9993,2 53624  53.2161 288.6992 0001722  52.3821 127.9236 15.08817055  1301,6917.951,95.439,541.007,538.624,0.0
53624.0,STARLINK-4596,PAYLOAD,2022-11-10 16:00:00,15.08809519,0.0001674,53.2164,288.3246,54.2135,218.9843,4.0166e-05,3.51e-06,0.0,0 STARLINK-4596,1 53624U 22104AN  22314.66667824  .00000351  00000-0  40166-4 0  9996,2 53624  53.2164 288.3246 0001674  54.2135 218.9843 15.08809519 11636,6917.974,95.439,540.997,538.68,0.0
53624.0,STARLINK-4596,PAYLOAD,2022-11-10 22:00:00,15.08808753,0.0001658,53.2165,287.202,59.6523,132.2107,0.0022293,0.00035339,0.0,0 STARLINK-4596,1 53624U 22104AN  22314.91667824  .00035339  00000-0  22293-2 0  9997,2 53624  53.2165 287.2020 0001658  59.6523 132.2107 15.08808753  1300,6917.976,95.44,540.988,538.694,0.0
53624.0,STARLINK-4596,PAYLOAD,2022-11-11 14:00:01,15.08856863,0.0001730999999999,53.2164,284.2101,55.3248,159.6906,-0.0011845,-0.00019099,0.0,0 STARLINK-4596,1 53624U 22104AN  22315.58334491 -.00019099  00000-0 -11845-2 0  9990,2 53624  53.2164 284.2101 0001731  55.3248 159.6906 15.08856863 11772,6917.829000000002,95.436,540.891,538.496,0.0
53624.0,STARLINK-4596,PAYLOAD,2022-11-11 22:00:00,15.08865685,0.0001723,53.2166,282.7131,63.5049,163.1166,-0.0011064,-0.00017866,0.0,0 STARLINK-4596,1 53624U 22104AN  22315.91667824 -.00017866  00000-0 -11064-2 0  9999,2 53624  53.2166 282.7131 0001723  63.5049 163.1166 15.08865685  1309,6917.802,95.436,540.859,538.475,0.0
53624.0,STARLINK-4596,PAYLOAD,2022-11-12 06:00:00,15.08835265,0.0001921,53.2164,281.2184,57.8513,180.394,0.0020181,0.00031972,0.0,0 STARLINK-4596,1 53624U 22104AN  22316.25001157  .00031972  00000-0  20181-2 0  9990,2 53624  53.2164 281.2184 0001921  57.8513 180.3940 15.08835265 11876,6917.895,95.438,541.089,538.431,0.0
53624.0,STARLINK-4596,PAYLOAD,2022-11-12 14:00:01,15.08887868,0.000176,53.2162,279.721,59.8139,190.028,-0.0033701,-0.00053595,0.0,0 STARLINK-4596,1 53624U 22104AN  22316.58334491 -.00053595  00000-0 -33701-2 0  9995,2 53624  53.2162 279.7210 0001760  59.8139 190.0280 15.08887868  1301,6917.734,95.435,540.817,538.382,0.0
53624.0,STARLINK-4596,PAYLOAD,2022-11-12 22:00:00,15.08863762,0.0001606,53.2162,278.2242,64.9571,196.5096,-0.0020452,-0.00032711,0.0,0 STARLINK-4596,1 53624U 22104AN  22316.91667824 -.00032711  00000-0 -20452-2 0  9997,2 53624  53.2162 278.2242 0001606  64.9571 196.5096 15.08863762 11973,6917.808000000001,95.436,540.784,538.562,0.0
53624.0,STARLINK-4596,PAYLOAD,2022-11-13 14:00:01,15.08828413,0.000151,53.2157,275.2321,56.6782,227.9617,-0.00087763,-0.00014224,0.0,0 STARLINK-4596,1 53624U 22104AN  22317.58334491 -.00014224  00000-0 -87763-3 0  9990,2 53624  53.2157 275.2321 0001510  56.6782 227.9617 15.08828413  1306,6917.916,95.438,540.825,538.736,0.0
53624.0,STARLINK-4596,PAYLOAD,2022-11-13 22:00:00,15.08834437,0.0001484,53.2157,273.7354,63.6241,232.585,0.0012043,0.00018927,0.0,0 STARLINK-4596,1 53624U 22104AN  22317.91667824  .00018927  00000-0  12043-2 0  9996,2 53624  53.2157 273.7354 0001484  63.6241 232.5850 15.08834437  1307,6917.897,95.438,540.789,538.736,0.0
53624.0,STARLINK-4596,PAYLOAD,2022-11-14 14:00:01,15.08838619,0.0001447,53.2156,270.7427,56.6953,262.6981,-0.00048291,-7.965e-05,0.0,0 STARLINK-4596,1 53624U 22104AN  22318.58334491 -.00007965  00000-0 -48291-3 0  9998,2 53624  53.2156 270.7427 0001447  56.6953 262.6981 15.08838619 12234,6917.885,95.438,540.751,538.749,0.0
53624.0,STARLINK-4596,PAYLOAD,2022-11-14 22:00:00,15.08885024,0.0001385,53.2162,269.2446,61.2241,269.7489,-0.0052086999999999,-0.00082338,0.0,0 STARLINK-4596,1 53624U 22104AN  22318.91667824 -.00082338  00000-0 -52087-2 0  9998,2 53624  53.2162 269.2446 0001385  61.2241 269.7489 15.08885024  1307,6917.743,95.435,540.566,538.65,0.0
53624.0,STARLINK-4596,PAYLOAD,2022-11-15 14:00:01,15.08843234,0.0001429,53.215,266.254,54.8194,299.3379,-0.00055382,-9.092e-05,0.0,0 STARLINK-4596,1 53624U 22104AN  22319.58334491 -.00009092  00000-0 -55382-3 0  9991,2 53624  53.2150 266.2540 0001429  54.8194 299.3379 15.08843234  1304,6917.871,95.437,540.724,538.747,0.0
53624.0,STARLINK-4596,PAYLOAD,2022-11-15 16:00:00,15.08829058,0.0001388,53.215,265.8795,57.0031,30.0581,0.0013210999999999,0.00020794,0.0,0 STARLINK-4596,1 53624U 22104AN  22319.66667824  .00020794  00000-0  13211-2 0  9993,2 53624  53.2150 265.8795 0001388  57.0031  30.0581 15.08829058 12394,6917.9140000000025,95.438,540.739,538.819,0.0
53624.0,STARLINK-4596,PAYLOAD,2022-11-15 22:00:00,15.08853844,0.0001506999999999,53.2151,264.7574,61.2231,304.5262,-0.0016090999999999,-0.00025815,0.0,0 STARLINK-4596,1 53624U 22104AN  22319.91667824 -.00025815  00000-0 -16091-2 0  9991,2 53624  53.2151 264.7574 0001507  61.2231 304.5262 15.08853844  1304,6917.8380000000025,95.437,540.746,538.661,0.0
53624.0,STARLINK-4596,PAYLOAD,2022-11-16 14:00:01,15.08846827,0.0001582,53.2161,261.7633,57.4268,331.5818,-0.0023015,-0.00036737,0.0,0 STARLINK-4596,1 53624U 22104AN  22320.58335648 -.00036737  00000-0 -23015-2 0  9991,2 53624  53.2161 261.7633 0001582  57.4268 331.5818 15.08846827 12535,6917.86,95.437,540.819,538.63,0.0
53624.0,STARLINK-4596,PAYLOAD,2022-11-16 22:00:08,15.08838425,0.0001434,53.2168,260.2652,58.142,342.8283,-0.00015818,-2.804e-05,0.0,0 STARLINK-4596,1 53624U 22104AN  22320.91675926 -.00002804  00000-0 -15818-3 0  9995,2 53624  53.2168 260.2652 0001434  58.1420 342.8283 15.08838425  1300,6917.885,95.438,540.742,538.758,0.0
53624.0,STARLINK-4596,PAYLOAD,2022-11-17 06:00:00,15.08835232,0.0001675999999999,53.2174,258.7707,49.4072,2.7157,0.00016631,2.359e-05,0.0,0 STARLINK-4596,1 53624U 22104AN  22321.25001157  .00002359  00000-0  16631-3 0  9999,2 53624  53.2174 258.7707 0001676  49.4072   2.7157 15.08835232 12637,6917.895,95.438,540.919,538.601,0.0
53624.0,STARLINK-4596,PAYLOAD,2022-11-17 14:00:01,15.08854946,0.0001725,53.2156,257.2752,60.2863,3.4103,-0.0021279,-0.00034008,0.0,0 STARLINK-4596,1 53624U 22104AN  22321.58334491 -.00034008  00000-0 -21279-2 0  9996,2 53624  53.2156 257.2752 0001725  60.2863   3.4103 15.08854946  1309,6917.835,95.437,540.893,538.506,0.0
53624.0,STARLINK-4596,PAYLOAD,2022-11-17 22:00:00,15.08846518,0.0001729,53.2157,255.7789,61.6926,13.5959,-0.00053283,-8.759999999999999e-05,0.0,0 STARLINK-4596,1 53624U 22104AN  22321.91667824 -.00008760  00000-0 -53283-3 0  9999,2 53624  53.2157 255.7789 0001729  61.6926  13.5959 15.08846518  1309,6917.86,95.437,540.922,538.529,0.0
53624.0,STARLINK-4596,PAYLOAD,2022-11-18 14:00:01,15.08832174,0.0001621,53.2159,252.7857,59.4825,39.0129,-0.00030298,-5.106e-05,0.0,0 STARLINK-4596,1 53624U 22104AN  22322.58334491 -.00005106  00000-0 -30298-3 0  9996,2 53624  53.2159 252.7857 0001621  59.4825  39.0129 15.08832174 12833,6917.904,95.438,540.891,538.648,0.0
53624.0,STARLINK-4596,PAYLOAD,2022-11-18 22:00:00,15.08848409,0.0001657,53.216,251.2896,60.3058,49.7666,-0.00095838,-0.00015512,0.0,0 STARLINK-4596,1 53624U 22104AN  22322.91667824 -.00015512  00000-0 -95838-3 0  9995,2 53624  53.2160 251.2896 0001657  60.3058  49.7666 15.08848409  1302,6917.855,95.437,540.866,538.573,0.0
53624.0,STARLINK-4596,PAYLOAD,2022-11-19 14:00:01,15.08820864,0.000151,53.216,248.2964,58.0778,75.2066,0.0012376,0.00019453,0.0,0 STARLINK-4596,1 53624U 22104AN  22323.58334491  .00019453  00000-0  12376-2 0  9991,2 53624  53.2160 248.2964 0001510  58.0778  75.2066 15.08820864  1308,6917.939,95.439,540.8480000000002,538.759,0.0
53624.0,STARLINK-4596,PAYLOAD,2022-11-19 16:00:00,15.08807377,0.0001504,53.2158,247.922,59.4638,166.7205,0.0033494,0.00053374,0.0,0 STARLINK-4596,1 53624U 22104AN  22323.66667824  .00053374  00000-0  33494-2 0  9993,2 53624  53.2158 247.9220 0001504  59.4638 166.7205 15.08807377 12991,6917.98,95.44,540.886,538.805,0.0
53624.0,STARLINK-4596,PAYLOAD,2022-11-19 22:00:00,15.08854898,0.0001556,53.2161,246.8004,58.9658,85.8924,-0.0014125,-0.00022707,0.0,0 STARLINK-4596,1 53624U 22104AN  22323.91667824 -.00022707  00000-0 -14125-2 0  9999,2 53624  53.2161 246.8004 0001556  58.9658  85.8924 15.08854898  1308,6917.835,95.437,540.776,538.623,0.0
